{
  "links" : {
    "next" : "https://api.nasa.gov/neo/rest/v1/feed?start_date=2012-05-16&end_date=2012-05-16&detailed=true&api_key=t0TVs3DtDT2H8Oy2Zy8m2eVrNsAVKAexjcZXUckd",
    "prev" : "https://api.nasa.gov/neo/rest/v1/feed?start_date=2012-05-14&end_date=2012-05-14&detailed=true&api_key=t0TVs3DtDT2H8Oy2Zy8m2eVrNsAVKAexjcZXUckd",
    "self" : "https://api.nasa.gov/neo/rest/v1/feed?start_date=2012-05-15&end_date=2012-05-15&detailed=true&api_key=t0TVs3DtDT2H8Oy2Zy8m2eVrNsAVKAexjcZXUckd"
  },
  "element_count" : 7,
  "near_earth_objects" : {
    "2012-05-15" : [ {
      "links" : {
        "self" : "https://api.nasa.gov/neo/rest/v1/neo/3602203?api_key=t0TVs3DtDT2H8Oy2Zy8m2eVrNsAVKAexjcZXUckd"
      },
      "neo_reference_id" : "3602203",
      "name" : "(2012 GK)",
      "nasa_jpl_url" : "http://ssd.jpl.nasa.gov/sbdb.cgi?sstr=3602203",
      "absolute_magnitude_h" : 22.4,
      "estimated_diameter" : {
        "kilometers" : {
          "estimated_diameter_min" : 0.0880146521,
          "estimated_diameter_max" : 0.1968067451
        },
        "meters" : {
          "estimated_diameter_min" : 88.0146520901,
          "estimated_diameter_max" : 196.8067450894
        },
        "miles" : {
          "estimated_diameter_min" : 0.0546897524,
          "estimated_diameter_max" : 0.122290004
        },
        "feet" : {
          "estimated_diameter_min" : 288.7619911632,
          "estimated_diameter_max" : 645.6914415591
        }
      },
      "is_potentially_hazardous_asteroid" : false,
      "close_approach_data" : [ {
        "close_approach_date" : "2012-05-15",
        "epoch_date_close_approach" : 1337065200000,
        "relative_velocity" : {
          "kilometers_per_second" : "8.280192359",
          "kilometers_per_hour" : "29808.6924923128",
          "miles_per_hour" : "18521.9622877929"
        },
        "miss_distance" : {
          "astronomical" : "0.0564019079",
          "lunar" : "21.9403419495",
          "kilometers" : "8437605",
          "miles" : "5242885"
        },
        "orbiting_body" : "Earth"
      } ],
      "orbital_data" : {
        "orbit_id" : "28",
        "orbit_determination_date" : "2017-04-06 08:50:11",
        "orbit_uncertainty" : "5",
        "minimum_orbit_intersection" : ".00208074",
        "jupiter_tisserand_invariant" : "3.930",
        "epoch_osculation" : "2458000.5",
        "eccentricity" : ".4683642523881431",
        "semi_major_axis" : "1.798767872303734",
        "inclination" : "3.356182801120782",
        "ascending_node_longitude" : "113.7923479814078",
        "orbital_period" : "881.172854879356",
        "perihelion_distance" : ".9562893025723851",
        "perihelion_argument" : "146.711862176947",
        "aphelion_distance" : "2.641246442035084",
        "perihelion_time" : "2457846.549173614459",
        "mean_anomaly" : "62.89605630938629",
        "mean_motion" : ".4085464026797428",
        "equinox" : "J2000"
      }
    }, {
      "links" : {
        "self" : "https://api.nasa.gov/neo/rest/v1/neo/3602837?api_key=t0TVs3DtDT2H8Oy2Zy8m2eVrNsAVKAexjcZXUckd"
      },
      "neo_reference_id" : "3602837",
      "name" : "(2012 HN13)",
      "nasa_jpl_url" : "http://ssd.jpl.nasa.gov/sbdb.cgi?sstr=3602837",
      "absolute_magnitude_h" : 22.8,
      "estimated_diameter" : {
        "kilometers" : {
          "estimated_diameter_min" : 0.0732073989,
          "estimated_diameter_max" : 0.1636967205
        },
        "meters" : {
          "estimated_diameter_min" : 73.2073989347,
          "estimated_diameter_max" : 163.696720474
        },
        "miles" : {
          "estimated_diameter_min" : 0.0454889547,
          "estimated_diameter_max" : 0.1017163949
        },
        "feet" : {
          "estimated_diameter_min" : 240.181762721,
          "estimated_diameter_max" : 537.0627483999
        }
      },
      "is_potentially_hazardous_asteroid" : false,
      "close_approach_data" : [ {
        "close_approach_date" : "2012-05-15",
        "epoch_date_close_approach" : 1337065200000,
        "relative_velocity" : {
          "kilometers_per_second" : "8.0114965458",
          "kilometers_per_hour" : "28841.3875649025",
          "miles_per_hour" : "17920.916623314"
        },
        "miss_distance" : {
          "astronomical" : "0.082265101",
          "lunar" : "32.0011253357",
          "kilometers" : "12306684",
          "miles" : "7647019"
        },
        "orbiting_body" : "Earth"
      } ],
      "orbital_data" : {
        "orbit_id" : "32",
        "orbit_determination_date" : "2017-09-28 06:48:14",
        "orbit_uncertainty" : "0",
        "minimum_orbit_intersection" : ".0526362",
        "jupiter_tisserand_invariant" : "4.681",
        "epoch_osculation" : "2458000.5",
        "eccentricity" : ".3080459600120383",
        "semi_major_axis" : "1.408823333092392",
        "inclination" : "4.066993347434498",
        "ascending_node_longitude" : "183.760812955057",
        "orbital_period" : "610.7777821707551",
        "perihelion_distance" : ".9748409969625863",
        "perihelion_argument" : "97.02790584201219",
        "aphelion_distance" : "1.842805669222197",
        "perihelion_time" : "2457933.792686077014",
        "mean_anomaly" : "39.31811816553802",
        "mean_motion" : ".5894124025280193",
        "equinox" : "J2000"
      }
    }, {
      "links" : {
        "self" : "https://api.nasa.gov/neo/rest/v1/neo/3719475?api_key=t0TVs3DtDT2H8Oy2Zy8m2eVrNsAVKAexjcZXUckd"
      },
      "neo_reference_id" : "3719475",
      "name" : "(2015 KJ19)",
      "nasa_jpl_url" : "http://ssd.jpl.nasa.gov/sbdb.cgi?sstr=3719475",
      "absolute_magnitude_h" : 22.5,
      "estimated_diameter" : {
        "kilometers" : {
          "estimated_diameter_min" : 0.0840533402,
          "estimated_diameter_max" : 0.1879489824
        },
        "meters" : {
          "estimated_diameter_min" : 84.0533402073,
          "estimated_diameter_max" : 187.9489824394
        },
        "miles" : {
          "estimated_diameter_min" : 0.0522283081,
          "estimated_diameter_max" : 0.1167860472
        },
        "feet" : {
          "estimated_diameter_min" : 275.7655606856,
          "estimated_diameter_max" : 616.6305395464
        }
      },
      "is_potentially_hazardous_asteroid" : false,
      "close_approach_data" : [ {
        "close_approach_date" : "2012-05-15",
        "epoch_date_close_approach" : 1337065200000,
        "relative_velocity" : {
          "kilometers_per_second" : "24.057269323",
          "kilometers_per_hour" : "86606.1695626319",
          "miles_per_hour" : "53813.7057485142"
        },
        "miss_distance" : {
          "astronomical" : "0.0623748824",
          "lunar" : "24.2638301849",
          "kilometers" : "9331150",
          "miles" : "5798107.5"
        },
        "orbiting_body" : "Earth"
      } ],
      "orbital_data" : {
        "orbit_id" : "12",
        "orbit_determination_date" : "2017-04-06 08:33:39",
        "orbit_uncertainty" : "7",
        "minimum_orbit_intersection" : ".0361049",
        "jupiter_tisserand_invariant" : "3.344",
        "epoch_osculation" : "2458000.5",
        "eccentricity" : ".7449430042042915",
        "semi_major_axis" : "2.080226268822172",
        "inclination" : "2.536437815742495",
        "ascending_node_longitude" : "106.3604769213447",
        "orbital_period" : "1095.883255759837",
        "perihelion_distance" : ".530576262701099",
        "perihelion_argument" : "29.69894353144696",
        "aphelion_distance" : "3.629876274943244",
        "perihelion_time" : "2458207.947033799213",
        "mean_anomaly" : "291.8532044584109",
        "mean_motion" : ".3285021448296441",
        "equinox" : "J2000"
      }
    } ]
  }
}